{
  "type": "FeatureCollection",
  "features": [
    {
      "type": "Feature",
      "properties": {
        "norad_id": 64202,
        "name": "GPS BIII-8  (PRN 21)",
        "group": "gnss",
        "lat": 52.53585285412352,
        "lon": 104.38842550123343,
        "alt_km": 20184.715310251613,
        "timestamp": "2025-12-07T05:38:10.148605+00:00",
        "meta_object_name": "GPS BIII-8  (PRN 21)",
        "meta_object_id": "2025-116A",
        "meta_epoch": "2025-12-03T06:10:25.375296",
        "meta_mean_motion": 2.00558491,
        "meta_eccentricity": 0.0004994,
        "meta_inclination": 55.0986,
        "meta_ra_of_asc_node": 39.0246,
        "meta_arg_of_pericenter": 306.9577,
        "meta_mean_anomaly": 136.4728,
        "meta_ephemeris_type": 0,
        "meta_classification_type": "U",
        "meta_norad_cat_id": 64202,
        "meta_element_set_no": 999,
        "meta_rev_at_epoch": 394,
        "meta_bstar": 0,
        "meta_mean_motion_dot": -6.8e-07,
        "meta_mean_motion_ddot": 0,
        "tle_line1": "1 64202U 25116A   25337.25723814 -.00000068  00000+0  00000+0 0  9994",
        "tle_line2": "2 64202  55.0986  39.0246 0004994 306.9577 136.4728  2.00558491  3947"
      },
      "geometry": {
        "type": "Point",
        "coordinates": [
          104.38842550123343,
          52.53585285412352
        ]
      }
    },
    {
      "type": "Feature",
      "properties": {
        "norad_id": 65590,
        "name": "COSMOS 2596 (708K)",
        "group": "gnss",
        "lat": 40.083198770603104,
        "lon": 118.25139737142686,
        "alt_km": 19160.717960694255,
        "timestamp": "2025-12-07T05:38:10.148616+00:00",
        "meta_object_name": "COSMOS 2596 (708K)",
        "meta_object_id": "2025-206B",
        "meta_epoch": "2025-12-05T10:56:18.216960",
        "meta_mean_motion": 2.13100168,
        "meta_eccentricity": 0.00140237,
        "meta_inclination": 64.7483,
        "meta_ra_of_asc_node": 321.7274,
        "meta_arg_of_pericenter": 304.902,
        "meta_mean_anomaly": 264.8431,
        "meta_ephemeris_type": 0,
        "meta_classification_type": "U",
        "meta_norad_cat_id": 65590,
        "meta_element_set_no": 999,
        "meta_rev_at_epoch": 177,
        "meta_bstar": 0,
        "meta_mean_motion_dot": -5e-07,
        "meta_mean_motion_ddot": 0,
        "tle_line1": "1 65590U 25206B   25339.45576640 -.00000050  00000+0  00000+0 0  9993",
        "tle_line2": "2 65590  64.7483 321.7274 0014023 304.9020 264.8431  2.13100168  1778"
      },
      "geometry": {
        "type": "Point",
        "coordinates": [
          118.25139737142686,
          40.083198770603104
        ]
      }
    }
  ]
}